[{"OBJECT_NAME":"RESOURCESAT-2A","OBJECT_ID":"2016-074A","EPOCH":"2026-03-09T23:20:04.284384","MEAN_MOTION":14.21600566,"ECCENTRICITY":0.00024894,"INCLINATION":98.7596,"RA_OF_ASC_NODE":143.2604,"ARG_OF_PERICENTER":35.4222,"MEAN_ANOMALY":324.712,"EPHEMERIS_TYPE":0,"CLASSIFICATION_TYPE":"U","NORAD_CAT_ID":41877,"ELEMENT_SET_NO":999,"REV_AT_EPOCH":48020,"BSTAR":7.9593145e-5,"MEAN_MOTION_DOT":1.3e-6,"MEAN_MOTION_DDOT":0},{"OBJECT_NAME":"METEOR 1-5","OBJECT_ID":"1970-047A","EPOCH":"2026-03-09T17:42:10.199520","MEAN_MOTION":14.16157199,"ECCENTRICITY":0.00392283,"INCLINATION":81.2198,"RA_OF_ASC_NODE":333.8443,"ARG_OF_PERICENTER":339.9049,"MEAN_ANOMALY":20.0578,"EPHEMERIS_TYPE":0,"CLASSIFICATION_TYPE":"U","NORAD_CAT_ID":4419,"ELEMENT_SET_NO":999,"REV_AT_EPOCH":87466,"BSTAR":4.4761894e-5,"MEAN_MOTION_DOT":1.02e-6,"MEAN_MOTION_DDOT":0}]
